{"type":"FeatureCollection","metadata":{"fonte":"Curado a partir de IBGE 2022 / Wikipedia","total":240,"geracao":"2026-05-31 00:49:07 UTC","nota":"Dataset inicial com capitais + cidades principais. Rode dev/baixar_cidades_brasil.py para obter os 5570 municipios."},"features":[{"type":"Feature","properties":{"nome":"Rio Branco","uf":"AC","regiao":"Norte","populacao":419452,"capital":true},"geometry":{"type":"Point","coordinates":[-67.8243,-9.9747]}},{"type":"Feature","properties":{"nome":"Cruzeiro do Sul","uf":"AC","regiao":"Norte","populacao":90664},"geometry":{"type":"Point","coordinates":[-72.67,-7.6273]}},{"type":"Feature","properties":{"nome":"Manaus","uf":"AM","regiao":"Norte","populacao":2255903,"capital":true},"geometry":{"type":"Point","coordinates":[-60.0217,-3.119]}},{"type":"Feature","properties":{"nome":"Parintins","uf":"AM","regiao":"Norte","populacao":113168},"geometry":{"type":"Point","coordinates":[-56.7359,-2.628]}},{"type":"Feature","properties":{"nome":"Itacoatiara","uf":"AM","regiao":"Norte","populacao":101337},"geometry":{"type":"Point","coordinates":[-58.4441,-3.143]}},{"type":"Feature","properties":{"nome":"Macapá","uf":"AP","regiao":"Norte","populacao":512902,"capital":true},"geometry":{"type":"Point","coordinates":[-51.0664,0.0345]}},{"type":"Feature","properties":{"nome":"Santana","uf":"AP","regiao":"Norte","populacao":123096},"geometry":{"type":"Point","coordinates":[-51.1814,-0.0581]}},{"type":"Feature","properties":{"nome":"Belém","uf":"PA","regiao":"Norte","populacao":1499641,"capital":true},"geometry":{"type":"Point","coordinates":[-48.5039,-1.4558]}},{"type":"Feature","properties":{"nome":"Santarém","uf":"PA","regiao":"Norte","populacao":308339},"geometry":{"type":"Point","coordinates":[-54.7083,-2.4431]}},{"type":"Feature","properties":{"nome":"Ananindeua","uf":"PA","regiao":"Norte","populacao":540410},"geometry":{"type":"Point","coordinates":[-48.3722,-1.3654]}},{"type":"Feature","properties":{"nome":"Marabá","uf":"PA","regiao":"Norte","populacao":287079},"geometry":{"type":"Point","coordinates":[-49.1319,-5.3814]}},{"type":"Feature","properties":{"nome":"Castanhal","uf":"PA","regiao":"Norte","populacao":205729},"geometry":{"type":"Point","coordinates":[-47.9265,-1.2935]}},{"type":"Feature","properties":{"nome":"Porto Velho","uf":"RO","regiao":"Norte","populacao":548952,"capital":true},"geometry":{"type":"Point","coordinates":[-63.9039,-8.7619]}},{"type":"Feature","properties":{"nome":"Ji-Paraná","uf":"RO","regiao":"Norte","populacao":131560},"geometry":{"type":"Point","coordinates":[-61.9519,-10.8853]}},{"type":"Feature","properties":{"nome":"Ariquemes","uf":"RO","regiao":"Norte","populacao":107345},"geometry":{"type":"Point","coordinates":[-63.0413,-9.9134]}},{"type":"Feature","properties":{"nome":"Boa Vista","uf":"RR","regiao":"Norte","populacao":436591,"capital":true},"geometry":{"type":"Point","coordinates":[-60.6758,2.8235]}},{"type":"Feature","properties":{"nome":"Palmas","uf":"TO","regiao":"Norte","populacao":313349,"capital":true},"geometry":{"type":"Point","coordinates":[-48.3338,-10.1843]}},{"type":"Feature","properties":{"nome":"Araguaína","uf":"TO","regiao":"Norte","populacao":183381},"geometry":{"type":"Point","coordinates":[-48.2065,-7.1937]}},{"type":"Feature","properties":{"nome":"Gurupi","uf":"TO","regiao":"Norte","populacao":89111},"geometry":{"type":"Point","coordinates":[-49.0681,-11.7271]}},{"type":"Feature","properties":{"nome":"Maceió","uf":"AL","regiao":"Nordeste","populacao":957916,"capital":true},"geometry":{"type":"Point","coordinates":[-35.7089,-9.6498]}},{"type":"Feature","properties":{"nome":"Arapiraca","uf":"AL","regiao":"Nordeste","populacao":233047},"geometry":{"type":"Point","coordinates":[-36.6611,-9.7522]}},{"type":"Feature","properties":{"nome":"Salvador","uf":"BA","regiao":"Nordeste","populacao":2417678,"capital":true},"geometry":{"type":"Point","coordinates":[-38.5014,-12.9714]}},{"type":"Feature","properties":{"nome":"Feira de Santana","uf":"BA","regiao":"Nordeste","populacao":619609},"geometry":{"type":"Point","coordinates":[-38.9663,-12.2664]}},{"type":"Feature","properties":{"nome":"Vitória da Conquista","uf":"BA","regiao":"Nordeste","populacao":341128},"geometry":{"type":"Point","coordinates":[-40.8442,-14.8615]}},{"type":"Feature","properties":{"nome":"Camaçari","uf":"BA","regiao":"Nordeste","populacao":304302},"geometry":{"type":"Point","coordinates":[-38.3242,-12.6996]}},{"type":"Feature","properties":{"nome":"Itabuna","uf":"BA","regiao":"Nordeste","populacao":213223},"geometry":{"type":"Point","coordinates":[-39.2803,-14.7858]}},{"type":"Feature","properties":{"nome":"Juazeiro","uf":"BA","regiao":"Nordeste","populacao":217932},"geometry":{"type":"Point","coordinates":[-40.4986,-9.4111]}},{"type":"Feature","properties":{"nome":"Ilhéus","uf":"BA","regiao":"Nordeste","populacao":159405},"geometry":{"type":"Point","coordinates":[-39.0463,-14.7935]}},{"type":"Feature","properties":{"nome":"Jequié","uf":"BA","regiao":"Nordeste","populacao":151895},"geometry":{"type":"Point","coordinates":[-40.0883,-13.859]}},{"type":"Feature","properties":{"nome":"Lauro de Freitas","uf":"BA","regiao":"Nordeste","populacao":200892},"geometry":{"type":"Point","coordinates":[-38.3275,-12.8989]}},{"type":"Feature","properties":{"nome":"Fortaleza","uf":"CE","regiao":"Nordeste","populacao":2703391,"capital":true},"geometry":{"type":"Point","coordinates":[-38.5433,-3.7172]}},{"type":"Feature","properties":{"nome":"Caucaia","uf":"CE","regiao":"Nordeste","populacao":355679},"geometry":{"type":"Point","coordinates":[-38.6531,-3.7361]}},{"type":"Feature","properties":{"nome":"Juazeiro do Norte","uf":"CE","regiao":"Nordeste","populacao":278264},"geometry":{"type":"Point","coordinates":[-39.3155,-7.2128]}},{"type":"Feature","properties":{"nome":"Maracanaú","uf":"CE","regiao":"Nordeste","populacao":229458},"geometry":{"type":"Point","coordinates":[-38.6258,-3.8767]}},{"type":"Feature","properties":{"nome":"Sobral","uf":"CE","regiao":"Nordeste","populacao":213855},"geometry":{"type":"Point","coordinates":[-40.3494,-3.6856]}},{"type":"Feature","properties":{"nome":"Crato","uf":"CE","regiao":"Nordeste","populacao":133072},"geometry":{"type":"Point","coordinates":[-39.4097,-7.2336]}},{"type":"Feature","properties":{"nome":"Itapipoca","uf":"CE","regiao":"Nordeste","populacao":131876},"geometry":{"type":"Point","coordinates":[-39.5836,-3.4925]}},{"type":"Feature","properties":{"nome":"São Luís","uf":"MA","regiao":"Nordeste","populacao":1115932,"capital":true},"geometry":{"type":"Point","coordinates":[-44.3028,-2.5297]}},{"type":"Feature","properties":{"nome":"Imperatriz","uf":"MA","regiao":"Nordeste","populacao":261203},"geometry":{"type":"Point","coordinates":[-47.4915,-5.5258]}},{"type":"Feature","properties":{"nome":"Caxias","uf":"MA","regiao":"Nordeste","populacao":164224},"geometry":{"type":"Point","coordinates":[-43.3556,-4.8589]}},{"type":"Feature","properties":{"nome":"Timon","uf":"MA","regiao":"Nordeste","populacao":168166},"geometry":{"type":"Point","coordinates":[-42.8367,-5.0942]}},{"type":"Feature","properties":{"nome":"Codó","uf":"MA","regiao":"Nordeste","populacao":121283},"geometry":{"type":"Point","coordinates":[-43.8856,-4.4581]}},{"type":"Feature","properties":{"nome":"João Pessoa","uf":"PB","regiao":"Nordeste","populacao":833932,"capital":true},"geometry":{"type":"Point","coordinates":[-34.845,-7.1195]}},{"type":"Feature","properties":{"nome":"Campina Grande","uf":"PB","regiao":"Nordeste","populacao":419379},"geometry":{"type":"Point","coordinates":[-35.8811,-7.2306]}},{"type":"Feature","properties":{"nome":"Santa Rita","uf":"PB","regiao":"Nordeste","populacao":141488},"geometry":{"type":"Point","coordinates":[-34.9783,-7.1138]}},{"type":"Feature","properties":{"nome":"Patos","uf":"PB","regiao":"Nordeste","populacao":109222},"geometry":{"type":"Point","coordinates":[-37.28,-7.0244]}},{"type":"Feature","properties":{"nome":"Recife","uf":"PE","regiao":"Nordeste","populacao":1653461,"capital":true},"geometry":{"type":"Point","coordinates":[-34.877,-8.0476]}},{"type":"Feature","properties":{"nome":"Jaboatão dos Guararapes","uf":"PE","regiao":"Nordeste","populacao":706867},"geometry":{"type":"Point","coordinates":[-35.0149,-8.113]}},{"type":"Feature","properties":{"nome":"Olinda","uf":"PE","regiao":"Nordeste","populacao":393115},"geometry":{"type":"Point","coordinates":[-34.8553,-8.0089]}},{"type":"Feature","properties":{"nome":"Caruaru","uf":"PE","regiao":"Nordeste","populacao":365278},"geometry":{"type":"Point","coordinates":[-35.9764,-8.2839]}},{"type":"Feature","properties":{"nome":"Petrolina","uf":"PE","regiao":"Nordeste","populacao":360721},"geometry":{"type":"Point","coordinates":[-40.503,-9.3891]}},{"type":"Feature","properties":{"nome":"Paulista","uf":"PE","regiao":"Nordeste","populacao":331774},"geometry":{"type":"Point","coordinates":[-34.8728,-7.9408]}},{"type":"Feature","properties":{"nome":"Cabo de Santo Agostinho","uf":"PE","regiao":"Nordeste","populacao":205112},"geometry":{"type":"Point","coordinates":[-35.0347,-8.2872]}},{"type":"Feature","properties":{"nome":"Camaragibe","uf":"PE","regiao":"Nordeste","populacao":153252},"geometry":{"type":"Point","coordinates":[-34.9786,-8.0214]}},{"type":"Feature","properties":{"nome":"Garanhuns","uf":"PE","regiao":"Nordeste","populacao":142000},"geometry":{"type":"Point","coordinates":[-36.4961,-8.8847]}},{"type":"Feature","properties":{"nome":"Teresina","uf":"PI","regiao":"Nordeste","populacao":866300,"capital":true},"geometry":{"type":"Point","coordinates":[-42.8019,-5.0892]}},{"type":"Feature","properties":{"nome":"Parnaíba","uf":"PI","regiao":"Nordeste","populacao":151514},"geometry":{"type":"Point","coordinates":[-41.7766,-2.9039]}},{"type":"Feature","properties":{"nome":"Picos","uf":"PI","regiao":"Nordeste","populacao":80022},"geometry":{"type":"Point","coordinates":[-41.4669,-7.0772]}},{"type":"Feature","properties":{"nome":"Natal","uf":"RN","regiao":"Nordeste","populacao":890480,"capital":true},"geometry":{"type":"Point","coordinates":[-35.211,-5.7945]}},{"type":"Feature","properties":{"nome":"Mossoró","uf":"RN","regiao":"Nordeste","populacao":300618},"geometry":{"type":"Point","coordinates":[-37.3441,-5.1875]}},{"type":"Feature","properties":{"nome":"Parnamirim","uf":"RN","regiao":"Nordeste","populacao":254893},"geometry":{"type":"Point","coordinates":[-35.2628,-5.9156]}},{"type":"Feature","properties":{"nome":"Aracaju","uf":"SE","regiao":"Nordeste","populacao":664908,"capital":true},"geometry":{"type":"Point","coordinates":[-37.0731,-10.9472]}},{"type":"Feature","properties":{"nome":"Nossa Senhora do Socorro","uf":"SE","regiao":"Nordeste","populacao":178935},"geometry":{"type":"Point","coordinates":[-37.1264,-10.8553]}},{"type":"Feature","properties":{"nome":"Lagarto","uf":"SE","regiao":"Nordeste","populacao":103188},"geometry":{"type":"Point","coordinates":[-37.67,-10.917]}},{"type":"Feature","properties":{"nome":"Brasília","uf":"DF","regiao":"Centro-Oeste","populacao":3094325,"capital":true},"geometry":{"type":"Point","coordinates":[-47.8825,-15.7942]}},{"type":"Feature","properties":{"nome":"Goiânia","uf":"GO","regiao":"Centro-Oeste","populacao":1437366,"capital":true},"geometry":{"type":"Point","coordinates":[-49.2643,-16.6864]}},{"type":"Feature","properties":{"nome":"Aparecida de Goiânia","uf":"GO","regiao":"Centro-Oeste","populacao":590146},"geometry":{"type":"Point","coordinates":[-49.2435,-16.8237]}},{"type":"Feature","properties":{"nome":"Anápolis","uf":"GO","regiao":"Centro-Oeste","populacao":381970},"geometry":{"type":"Point","coordinates":[-48.9531,-16.3281]}},{"type":"Feature","properties":{"nome":"Rio Verde","uf":"GO","regiao":"Centro-Oeste","populacao":254780},"geometry":{"type":"Point","coordinates":[-50.9269,-17.7975]}},{"type":"Feature","properties":{"nome":"Luziânia","uf":"GO","regiao":"Centro-Oeste","populacao":213890},"geometry":{"type":"Point","coordinates":[-47.9508,-16.2525]}},{"type":"Feature","properties":{"nome":"Águas Lindas de Goiás","uf":"GO","regiao":"Centro-Oeste","populacao":219000},"geometry":{"type":"Point","coordinates":[-48.282,-15.7589]}},{"type":"Feature","properties":{"nome":"Valparaíso de Goiás","uf":"GO","regiao":"Centro-Oeste","populacao":170555},"geometry":{"type":"Point","coordinates":[-47.9756,-16.0658]}},{"type":"Feature","properties":{"nome":"Cuiabá","uf":"MT","regiao":"Centro-Oeste","populacao":650912,"capital":true},"geometry":{"type":"Point","coordinates":[-56.0979,-15.6014]}},{"type":"Feature","properties":{"nome":"Várzea Grande","uf":"MT","regiao":"Centro-Oeste","populacao":287356},"geometry":{"type":"Point","coordinates":[-56.1325,-15.6467]}},{"type":"Feature","properties":{"nome":"Rondonópolis","uf":"MT","regiao":"Centro-Oeste","populacao":234884},"geometry":{"type":"Point","coordinates":[-54.6356,-16.4711]}},{"type":"Feature","properties":{"nome":"Sinop","uf":"MT","regiao":"Centro-Oeste","populacao":142459},"geometry":{"type":"Point","coordinates":[-55.5028,-11.8642]}},{"type":"Feature","properties":{"nome":"Tangará da Serra","uf":"MT","regiao":"Centro-Oeste","populacao":103750},"geometry":{"type":"Point","coordinates":[-57.4928,-14.6228]}},{"type":"Feature","properties":{"nome":"Cáceres","uf":"MT","regiao":"Centro-Oeste","populacao":93874},"geometry":{"type":"Point","coordinates":[-57.6817,-16.0764]}},{"type":"Feature","properties":{"nome":"Campo Grande","uf":"MS","regiao":"Centro-Oeste","populacao":898100,"capital":true},"geometry":{"type":"Point","coordinates":[-54.6295,-20.4486]}},{"type":"Feature","properties":{"nome":"Dourados","uf":"MS","regiao":"Centro-Oeste","populacao":231057},"geometry":{"type":"Point","coordinates":[-54.8061,-22.2208]}},{"type":"Feature","properties":{"nome":"Três Lagoas","uf":"MS","regiao":"Centro-Oeste","populacao":138137},"geometry":{"type":"Point","coordinates":[-51.6781,-20.7521]}},{"type":"Feature","properties":{"nome":"Corumbá","uf":"MS","regiao":"Centro-Oeste","populacao":103907},"geometry":{"type":"Point","coordinates":[-57.6539,-19.009]}},{"type":"Feature","properties":{"nome":"Ponta Porã","uf":"MS","regiao":"Centro-Oeste","populacao":93937},"geometry":{"type":"Point","coordinates":[-55.7203,-22.5364]}},{"type":"Feature","properties":{"nome":"Vitória","uf":"ES","regiao":"Sudeste","populacao":322869,"capital":true},"geometry":{"type":"Point","coordinates":[-40.3128,-20.3155]}},{"type":"Feature","properties":{"nome":"Serra","uf":"ES","regiao":"Sudeste","populacao":527248},"geometry":{"type":"Point","coordinates":[-40.3076,-20.1288]}},{"type":"Feature","properties":{"nome":"Vila Velha","uf":"ES","regiao":"Sudeste","populacao":501325},"geometry":{"type":"Point","coordinates":[-40.287,-20.3417]}},{"type":"Feature","properties":{"nome":"Cariacica","uf":"ES","regiao":"Sudeste","populacao":383917},"geometry":{"type":"Point","coordinates":[-40.4178,-20.2625]}},{"type":"Feature","properties":{"nome":"Cachoeiro de Itapemirim","uf":"ES","regiao":"Sudeste","populacao":210589},"geometry":{"type":"Point","coordinates":[-41.1131,-20.8489]}},{"type":"Feature","properties":{"nome":"Linhares","uf":"ES","regiao":"Sudeste","populacao":180000},"geometry":{"type":"Point","coordinates":[-40.0644,-19.3942]}},{"type":"Feature","properties":{"nome":"São Mateus","uf":"ES","regiao":"Sudeste","populacao":134416},"geometry":{"type":"Point","coordinates":[-39.8589,-18.7178]}},{"type":"Feature","properties":{"nome":"Colatina","uf":"ES","regiao":"Sudeste","populacao":124791},"geometry":{"type":"Point","coordinates":[-40.6306,-19.5394]}},{"type":"Feature","properties":{"nome":"Belo Horizonte","uf":"MG","regiao":"Sudeste","populacao":2521564,"capital":true},"geometry":{"type":"Point","coordinates":[-43.9345,-19.9167]}},{"type":"Feature","properties":{"nome":"Uberlândia","uf":"MG","regiao":"Sudeste","populacao":713224},"geometry":{"type":"Point","coordinates":[-48.2622,-18.9113]}},{"type":"Feature","properties":{"nome":"Contagem","uf":"MG","regiao":"Sudeste","populacao":668949},"geometry":{"type":"Point","coordinates":[-44.0536,-19.932]}},{"type":"Feature","properties":{"nome":"Juiz de Fora","uf":"MG","regiao":"Sudeste","populacao":540756},"geometry":{"type":"Point","coordinates":[-43.3503,-21.7642]}},{"type":"Feature","properties":{"nome":"Betim","uf":"MG","regiao":"Sudeste","populacao":439340},"geometry":{"type":"Point","coordinates":[-44.1989,-19.9678]}},{"type":"Feature","properties":{"nome":"Montes Claros","uf":"MG","regiao":"Sudeste","populacao":413487},"geometry":{"type":"Point","coordinates":[-43.8583,-16.7286]}},{"type":"Feature","properties":{"nome":"Ribeirão das Neves","uf":"MG","regiao":"Sudeste","populacao":330954},"geometry":{"type":"Point","coordinates":[-44.0867,-19.7669]}},{"type":"Feature","properties":{"nome":"Uberaba","uf":"MG","regiao":"Sudeste","populacao":337092},"geometry":{"type":"Point","coordinates":[-47.9381,-19.748]}},{"type":"Feature","properties":{"nome":"Governador Valadares","uf":"MG","regiao":"Sudeste","populacao":279665},"geometry":{"type":"Point","coordinates":[-41.9494,-18.8541]}},{"type":"Feature","properties":{"nome":"Ipatinga","uf":"MG","regiao":"Sudeste","populacao":260813},"geometry":{"type":"Point","coordinates":[-42.5375,-19.4683]}},{"type":"Feature","properties":{"nome":"Sete Lagoas","uf":"MG","regiao":"Sudeste","populacao":236779},"geometry":{"type":"Point","coordinates":[-44.2469,-19.4658]}},{"type":"Feature","properties":{"nome":"Divinópolis","uf":"MG","regiao":"Sudeste","populacao":235543},"geometry":{"type":"Point","coordinates":[-44.8836,-20.1389]}},{"type":"Feature","properties":{"nome":"Santa Luzia","uf":"MG","regiao":"Sudeste","populacao":218897},"geometry":{"type":"Point","coordinates":[-43.8519,-19.7697]}},{"type":"Feature","properties":{"nome":"Ibirité","uf":"MG","regiao":"Sudeste","populacao":182153},"geometry":{"type":"Point","coordinates":[-44.0581,-20.0247]}},{"type":"Feature","properties":{"nome":"Poços de Caldas","uf":"MG","regiao":"Sudeste","populacao":168641},"geometry":{"type":"Point","coordinates":[-46.5614,-21.7872]}},{"type":"Feature","properties":{"nome":"Patos de Minas","uf":"MG","regiao":"Sudeste","populacao":152228},"geometry":{"type":"Point","coordinates":[-46.5189,-18.5793]}},{"type":"Feature","properties":{"nome":"Pouso Alegre","uf":"MG","regiao":"Sudeste","populacao":152549},"geometry":{"type":"Point","coordinates":[-45.9367,-22.2306]}},{"type":"Feature","properties":{"nome":"Teófilo Otoni","uf":"MG","regiao":"Sudeste","populacao":141473},"geometry":{"type":"Point","coordinates":[-41.5078,-17.8581]}},{"type":"Feature","properties":{"nome":"Barbacena","uf":"MG","regiao":"Sudeste","populacao":138204},"geometry":{"type":"Point","coordinates":[-43.7747,-21.2256]}},{"type":"Feature","properties":{"nome":"Sabará","uf":"MG","regiao":"Sudeste","populacao":135968},"geometry":{"type":"Point","coordinates":[-43.8064,-19.8856]}},{"type":"Feature","properties":{"nome":"Varginha","uf":"MG","regiao":"Sudeste","populacao":141600},"geometry":{"type":"Point","coordinates":[-45.4308,-21.5519]}},{"type":"Feature","properties":{"nome":"Conselheiro Lafaiete","uf":"MG","regiao":"Sudeste","populacao":128589},"geometry":{"type":"Point","coordinates":[-43.7864,-20.6597]}},{"type":"Feature","properties":{"nome":"Vespasiano","uf":"MG","regiao":"Sudeste","populacao":131106},"geometry":{"type":"Point","coordinates":[-43.9233,-19.6914]}},{"type":"Feature","properties":{"nome":"Itabira","uf":"MG","regiao":"Sudeste","populacao":120420},"geometry":{"type":"Point","coordinates":[-43.2266,-19.623]}},{"type":"Feature","properties":{"nome":"Araguari","uf":"MG","regiao":"Sudeste","populacao":119568},"geometry":{"type":"Point","coordinates":[-48.1869,-18.6453]}},{"type":"Feature","properties":{"nome":"Passos","uf":"MG","regiao":"Sudeste","populacao":115338},"geometry":{"type":"Point","coordinates":[-46.6094,-20.7194]}},{"type":"Feature","properties":{"nome":"Coronel Fabriciano","uf":"MG","regiao":"Sudeste","populacao":109363},"geometry":{"type":"Point","coordinates":[-42.6286,-19.5189]}},{"type":"Feature","properties":{"nome":"Ubá","uf":"MG","regiao":"Sudeste","populacao":116152},"geometry":{"type":"Point","coordinates":[-42.9419,-21.1158]}},{"type":"Feature","properties":{"nome":"Muriaé","uf":"MG","regiao":"Sudeste","populacao":108027},"geometry":{"type":"Point","coordinates":[-42.3683,-21.1306]}},{"type":"Feature","properties":{"nome":"Araxá","uf":"MG","regiao":"Sudeste","populacao":106263},"geometry":{"type":"Point","coordinates":[-46.9425,-19.5928]}},{"type":"Feature","properties":{"nome":"Itajubá","uf":"MG","regiao":"Sudeste","populacao":97334},"geometry":{"type":"Point","coordinates":[-45.4528,-22.4256]}},{"type":"Feature","properties":{"nome":"Lavras","uf":"MG","regiao":"Sudeste","populacao":107382},"geometry":{"type":"Point","coordinates":[-45.0008,-21.2456]}},{"type":"Feature","properties":{"nome":"Nova Lima","uf":"MG","regiao":"Sudeste","populacao":95610},"geometry":{"type":"Point","coordinates":[-43.8453,-19.9858]}},{"type":"Feature","properties":{"nome":"Ouro Preto","uf":"MG","regiao":"Sudeste","populacao":75321},"geometry":{"type":"Point","coordinates":[-43.5036,-20.3856]}},{"type":"Feature","properties":{"nome":"Diamantina","uf":"MG","regiao":"Sudeste","populacao":47828},"geometry":{"type":"Point","coordinates":[-43.6003,-18.2417]}},{"type":"Feature","properties":{"nome":"Rio de Janeiro","uf":"RJ","regiao":"Sudeste","populacao":6748000,"capital":true},"geometry":{"type":"Point","coordinates":[-43.1729,-22.9068]}},{"type":"Feature","properties":{"nome":"São Gonçalo","uf":"RJ","regiao":"Sudeste","populacao":1091737},"geometry":{"type":"Point","coordinates":[-43.0537,-22.8267]}},{"type":"Feature","properties":{"nome":"Duque de Caxias","uf":"RJ","regiao":"Sudeste","populacao":924624},"geometry":{"type":"Point","coordinates":[-43.3056,-22.7858]}},{"type":"Feature","properties":{"nome":"Nova Iguaçu","uf":"RJ","regiao":"Sudeste","populacao":824550},"geometry":{"type":"Point","coordinates":[-43.4603,-22.7556]}},{"type":"Feature","properties":{"nome":"Niterói","uf":"RJ","regiao":"Sudeste","populacao":515317},"geometry":{"type":"Point","coordinates":[-43.1036,-22.8833]}},{"type":"Feature","properties":{"nome":"Belford Roxo","uf":"RJ","regiao":"Sudeste","populacao":513118},"geometry":{"type":"Point","coordinates":[-43.3989,-22.7642]}},{"type":"Feature","properties":{"nome":"Campos dos Goytacazes","uf":"RJ","regiao":"Sudeste","populacao":503424},"geometry":{"type":"Point","coordinates":[-41.3253,-21.7547]}},{"type":"Feature","properties":{"nome":"São João de Meriti","uf":"RJ","regiao":"Sudeste","populacao":471888},"geometry":{"type":"Point","coordinates":[-43.3722,-22.8033]}},{"type":"Feature","properties":{"nome":"Petrópolis","uf":"RJ","regiao":"Sudeste","populacao":305687},"geometry":{"type":"Point","coordinates":[-43.1786,-22.5054]}},{"type":"Feature","properties":{"nome":"Volta Redonda","uf":"RJ","regiao":"Sudeste","populacao":273988},"geometry":{"type":"Point","coordinates":[-44.0996,-22.5202]}},{"type":"Feature","properties":{"nome":"Magé","uf":"RJ","regiao":"Sudeste","populacao":246424},"geometry":{"type":"Point","coordinates":[-43.0397,-22.6531]}},{"type":"Feature","properties":{"nome":"Macaé","uf":"RJ","regiao":"Sudeste","populacao":261501},"geometry":{"type":"Point","coordinates":[-41.7869,-22.3708]}},{"type":"Feature","properties":{"nome":"Itaboraí","uf":"RJ","regiao":"Sudeste","populacao":242841},"geometry":{"type":"Point","coordinates":[-42.8597,-22.7456]}},{"type":"Feature","properties":{"nome":"Cabo Frio","uf":"RJ","regiao":"Sudeste","populacao":234884},"geometry":{"type":"Point","coordinates":[-42.0289,-22.8889]}},{"type":"Feature","properties":{"nome":"Nova Friburgo","uf":"RJ","regiao":"Sudeste","populacao":189587},"geometry":{"type":"Point","coordinates":[-42.5311,-22.2856]}},{"type":"Feature","properties":{"nome":"Barra Mansa","uf":"RJ","regiao":"Sudeste","populacao":180359},"geometry":{"type":"Point","coordinates":[-44.1731,-22.5439]}},{"type":"Feature","properties":{"nome":"Angra dos Reis","uf":"RJ","regiao":"Sudeste","populacao":205044},"geometry":{"type":"Point","coordinates":[-44.3097,-22.9692]}},{"type":"Feature","properties":{"nome":"Teresópolis","uf":"RJ","regiao":"Sudeste","populacao":182842},"geometry":{"type":"Point","coordinates":[-42.9656,-22.4117]}},{"type":"Feature","properties":{"nome":"Mesquita","uf":"RJ","regiao":"Sudeste","populacao":168376},"geometry":{"type":"Point","coordinates":[-43.4297,-22.7831]}},{"type":"Feature","properties":{"nome":"Resende","uf":"RJ","regiao":"Sudeste","populacao":131184},"geometry":{"type":"Point","coordinates":[-44.4503,-22.4689]}},{"type":"Feature","properties":{"nome":"Maricá","uf":"RJ","regiao":"Sudeste","populacao":167668},"geometry":{"type":"Point","coordinates":[-42.8189,-22.9189]}},{"type":"Feature","properties":{"nome":"São Paulo","uf":"SP","regiao":"Sudeste","populacao":12325232,"capital":true},"geometry":{"type":"Point","coordinates":[-46.6333,-23.5505]}},{"type":"Feature","properties":{"nome":"Guarulhos","uf":"SP","regiao":"Sudeste","populacao":1404694},"geometry":{"type":"Point","coordinates":[-46.5331,-23.4628]}},{"type":"Feature","properties":{"nome":"Campinas","uf":"SP","regiao":"Sudeste","populacao":1213792},"geometry":{"type":"Point","coordinates":[-47.0608,-22.9056]}},{"type":"Feature","properties":{"nome":"São Bernardo do Campo","uf":"SP","regiao":"Sudeste","populacao":816925},"geometry":{"type":"Point","coordinates":[-46.5647,-23.6914]}},{"type":"Feature","properties":{"nome":"Osasco","uf":"SP","regiao":"Sudeste","populacao":699944},"geometry":{"type":"Point","coordinates":[-46.7919,-23.5325]}},{"type":"Feature","properties":{"nome":"Santo André","uf":"SP","regiao":"Sudeste","populacao":721368},"geometry":{"type":"Point","coordinates":[-46.5383,-23.6639]}},{"type":"Feature","properties":{"nome":"São José dos Campos","uf":"SP","regiao":"Sudeste","populacao":729737},"geometry":{"type":"Point","coordinates":[-45.9009,-23.2237]}},{"type":"Feature","properties":{"nome":"Ribeirão Preto","uf":"SP","regiao":"Sudeste","populacao":711825},"geometry":{"type":"Point","coordinates":[-47.8103,-21.1775]}},{"type":"Feature","properties":{"nome":"Sorocaba","uf":"SP","regiao":"Sudeste","populacao":687357},"geometry":{"type":"Point","coordinates":[-47.4526,-23.5015]}},{"type":"Feature","properties":{"nome":"Mauá","uf":"SP","regiao":"Sudeste","populacao":478990},"geometry":{"type":"Point","coordinates":[-46.4611,-23.6678]}},{"type":"Feature","properties":{"nome":"São José do Rio Preto","uf":"SP","regiao":"Sudeste","populacao":480911},"geometry":{"type":"Point","coordinates":[-49.3794,-20.8197]}},{"type":"Feature","properties":{"nome":"Mogi das Cruzes","uf":"SP","regiao":"Sudeste","populacao":450785},"geometry":{"type":"Point","coordinates":[-46.1881,-23.5228]}},{"type":"Feature","properties":{"nome":"Santos","uf":"SP","regiao":"Sudeste","populacao":433311},"geometry":{"type":"Point","coordinates":[-46.3331,-23.9608]}},{"type":"Feature","properties":{"nome":"Diadema","uf":"SP","regiao":"Sudeste","populacao":426757},"geometry":{"type":"Point","coordinates":[-46.6228,-23.6856]}},{"type":"Feature","properties":{"nome":"Jundiaí","uf":"SP","regiao":"Sudeste","populacao":423006},"geometry":{"type":"Point","coordinates":[-46.8842,-23.1864]}},{"type":"Feature","properties":{"nome":"Piracicaba","uf":"SP","regiao":"Sudeste","populacao":407252},"geometry":{"type":"Point","coordinates":[-47.6492,-22.7253]}},{"type":"Feature","properties":{"nome":"Carapicuíba","uf":"SP","regiao":"Sudeste","populacao":396587},"geometry":{"type":"Point","coordinates":[-46.8358,-23.5225]}},{"type":"Feature","properties":{"nome":"Bauru","uf":"SP","regiao":"Sudeste","populacao":379146},"geometry":{"type":"Point","coordinates":[-49.0606,-22.3147]}},{"type":"Feature","properties":{"nome":"Itaquaquecetuba","uf":"SP","regiao":"Sudeste","populacao":381699},"geometry":{"type":"Point","coordinates":[-46.3489,-23.4861]}},{"type":"Feature","properties":{"nome":"São Vicente","uf":"SP","regiao":"Sudeste","populacao":365798},"geometry":{"type":"Point","coordinates":[-46.3917,-23.9633]}},{"type":"Feature","properties":{"nome":"Franca","uf":"SP","regiao":"Sudeste","populacao":358539},"geometry":{"type":"Point","coordinates":[-47.4006,-20.5386]}},{"type":"Feature","properties":{"nome":"Praia Grande","uf":"SP","regiao":"Sudeste","populacao":330845},"geometry":{"type":"Point","coordinates":[-46.4028,-24.0058]}},{"type":"Feature","properties":{"nome":"Guarujá","uf":"SP","regiao":"Sudeste","populacao":322750},"geometry":{"type":"Point","coordinates":[-46.2564,-23.9931]}},{"type":"Feature","properties":{"nome":"Taubaté","uf":"SP","regiao":"Sudeste","populacao":317915},"geometry":{"type":"Point","coordinates":[-45.5553,-23.0264]}},{"type":"Feature","properties":{"nome":"Limeira","uf":"SP","regiao":"Sudeste","populacao":308482},"geometry":{"type":"Point","coordinates":[-47.4017,-22.5647]}},{"type":"Feature","properties":{"nome":"Suzano","uf":"SP","regiao":"Sudeste","populacao":300559},"geometry":{"type":"Point","coordinates":[-46.3108,-23.5425]}},{"type":"Feature","properties":{"nome":"Taboão da Serra","uf":"SP","regiao":"Sudeste","populacao":275099},"geometry":{"type":"Point","coordinates":[-46.7906,-23.6261]}},{"type":"Feature","properties":{"nome":"Sumaré","uf":"SP","regiao":"Sudeste","populacao":279762},"geometry":{"type":"Point","coordinates":[-47.2667,-22.8219]}},{"type":"Feature","properties":{"nome":"Barueri","uf":"SP","regiao":"Sudeste","populacao":277059},"geometry":{"type":"Point","coordinates":[-46.8761,-23.5111]}},{"type":"Feature","properties":{"nome":"Embu das Artes","uf":"SP","regiao":"Sudeste","populacao":267901},"geometry":{"type":"Point","coordinates":[-46.8528,-23.6489]}},{"type":"Feature","properties":{"nome":"São Carlos","uf":"SP","regiao":"Sudeste","populacao":254484},"geometry":{"type":"Point","coordinates":[-47.8908,-22.0175]}},{"type":"Feature","properties":{"nome":"Indaiatuba","uf":"SP","regiao":"Sudeste","populacao":256223},"geometry":{"type":"Point","coordinates":[-47.2181,-23.0903]}},{"type":"Feature","properties":{"nome":"Marília","uf":"SP","regiao":"Sudeste","populacao":240590},"geometry":{"type":"Point","coordinates":[-49.9456,-22.2139]}},{"type":"Feature","properties":{"nome":"Cotia","uf":"SP","regiao":"Sudeste","populacao":253744},"geometry":{"type":"Point","coordinates":[-46.9192,-23.6033]}},{"type":"Feature","properties":{"nome":"Americana","uf":"SP","regiao":"Sudeste","populacao":242018},"geometry":{"type":"Point","coordinates":[-47.3306,-22.7392]}},{"type":"Feature","properties":{"nome":"Araraquara","uf":"SP","regiao":"Sudeste","populacao":238339},"geometry":{"type":"Point","coordinates":[-48.1786,-21.7858]}},{"type":"Feature","properties":{"nome":"Jacareí","uf":"SP","regiao":"Sudeste","populacao":233810},"geometry":{"type":"Point","coordinates":[-45.9667,-23.3053]}},{"type":"Feature","properties":{"nome":"Presidente Prudente","uf":"SP","regiao":"Sudeste","populacao":233888},"geometry":{"type":"Point","coordinates":[-51.3889,-22.1256]}},{"type":"Feature","properties":{"nome":"Itapevi","uf":"SP","regiao":"Sudeste","populacao":228942},"geometry":{"type":"Point","coordinates":[-46.9344,-23.5489]}},{"type":"Feature","properties":{"nome":"Rio Claro","uf":"SP","regiao":"Sudeste","populacao":210794},"geometry":{"type":"Point","coordinates":[-47.5611,-22.4117]}},{"type":"Feature","properties":{"nome":"Hortolândia","uf":"SP","regiao":"Sudeste","populacao":235998},"geometry":{"type":"Point","coordinates":[-47.22,-22.8581]}},{"type":"Feature","properties":{"nome":"Atibaia","uf":"SP","regiao":"Sudeste","populacao":151867},"geometry":{"type":"Point","coordinates":[-46.55,-23.1158]}},{"type":"Feature","properties":{"nome":"Curitiba","uf":"PR","regiao":"Sul","populacao":1773733,"capital":true},"geometry":{"type":"Point","coordinates":[-49.2733,-25.4284]}},{"type":"Feature","properties":{"nome":"Londrina","uf":"PR","regiao":"Sul","populacao":580870},"geometry":{"type":"Point","coordinates":[-51.1696,-23.3045]}},{"type":"Feature","properties":{"nome":"Maringá","uf":"PR","regiao":"Sul","populacao":436472},"geometry":{"type":"Point","coordinates":[-51.9386,-23.425]}},{"type":"Feature","properties":{"nome":"Ponta Grossa","uf":"PR","regiao":"Sul","populacao":358838},"geometry":{"type":"Point","coordinates":[-50.1619,-25.095]}},{"type":"Feature","properties":{"nome":"Cascavel","uf":"PR","regiao":"Sul","populacao":336073},"geometry":{"type":"Point","coordinates":[-53.4553,-24.9558]}},{"type":"Feature","properties":{"nome":"São José dos Pinhais","uf":"PR","regiao":"Sul","populacao":329058},"geometry":{"type":"Point","coordinates":[-49.2058,-25.535]}},{"type":"Feature","properties":{"nome":"Foz do Iguaçu","uf":"PR","regiao":"Sul","populacao":287677},"geometry":{"type":"Point","coordinates":[-54.5882,-25.5478]}},{"type":"Feature","properties":{"nome":"Colombo","uf":"PR","regiao":"Sul","populacao":247208},"geometry":{"type":"Point","coordinates":[-49.2247,-25.2917]}},{"type":"Feature","properties":{"nome":"Guarapuava","uf":"PR","regiao":"Sul","populacao":182117},"geometry":{"type":"Point","coordinates":[-51.4581,-25.3947]}},{"type":"Feature","properties":{"nome":"Paranaguá","uf":"PR","regiao":"Sul","populacao":154936},"geometry":{"type":"Point","coordinates":[-48.5097,-25.5208]}},{"type":"Feature","properties":{"nome":"Toledo","uf":"PR","regiao":"Sul","populacao":144601},"geometry":{"type":"Point","coordinates":[-53.7414,-24.7244]}},{"type":"Feature","properties":{"nome":"Apucarana","uf":"PR","regiao":"Sul","populacao":141280},"geometry":{"type":"Point","coordinates":[-51.4608,-23.5503]}},{"type":"Feature","properties":{"nome":"Araucária","uf":"PR","regiao":"Sul","populacao":148626},"geometry":{"type":"Point","coordinates":[-49.4106,-25.5933]}},{"type":"Feature","properties":{"nome":"Pinhais","uf":"PR","regiao":"Sul","populacao":131592},"geometry":{"type":"Point","coordinates":[-49.1928,-25.445]}},{"type":"Feature","properties":{"nome":"Campo Largo","uf":"PR","regiao":"Sul","populacao":134799},"geometry":{"type":"Point","coordinates":[-49.5269,-25.4581]}},{"type":"Feature","properties":{"nome":"Umuarama","uf":"PR","regiao":"Sul","populacao":113152},"geometry":{"type":"Point","coordinates":[-53.3219,-23.7669]}},{"type":"Feature","properties":{"nome":"Porto Alegre","uf":"RS","regiao":"Sul","populacao":1492530,"capital":true},"geometry":{"type":"Point","coordinates":[-51.2177,-30.0346]}},{"type":"Feature","properties":{"nome":"Caxias do Sul","uf":"RS","regiao":"Sul","populacao":517451},"geometry":{"type":"Point","coordinates":[-51.1786,-29.1631]}},{"type":"Feature","properties":{"nome":"Pelotas","uf":"RS","regiao":"Sul","populacao":328275},"geometry":{"type":"Point","coordinates":[-52.3375,-31.7654]}},{"type":"Feature","properties":{"nome":"Canoas","uf":"RS","regiao":"Sul","populacao":344158},"geometry":{"type":"Point","coordinates":[-51.1803,-29.9214]}},{"type":"Feature","properties":{"nome":"Santa Maria","uf":"RS","regiao":"Sul","populacao":281466},"geometry":{"type":"Point","coordinates":[-53.8069,-29.6842]}},{"type":"Feature","properties":{"nome":"Gravataí","uf":"RS","regiao":"Sul","populacao":272237},"geometry":{"type":"Point","coordinates":[-50.9925,-29.9442]}},{"type":"Feature","properties":{"nome":"Viamão","uf":"RS","regiao":"Sul","populacao":253758},"geometry":{"type":"Point","coordinates":[-51.0228,-30.0814]}},{"type":"Feature","properties":{"nome":"Novo Hamburgo","uf":"RS","regiao":"Sul","populacao":239051},"geometry":{"type":"Point","coordinates":[-51.1303,-29.6781]}},{"type":"Feature","properties":{"nome":"São Leopoldo","uf":"RS","regiao":"Sul","populacao":239526},"geometry":{"type":"Point","coordinates":[-51.1472,-29.7603]}},{"type":"Feature","properties":{"nome":"Rio Grande","uf":"RS","regiao":"Sul","populacao":199501},"geometry":{"type":"Point","coordinates":[-52.0986,-32.0353]}},{"type":"Feature","properties":{"nome":"Alvorada","uf":"RS","regiao":"Sul","populacao":195673},"geometry":{"type":"Point","coordinates":[-51.0808,-29.9897]}},{"type":"Feature","properties":{"nome":"Passo Fundo","uf":"RS","regiao":"Sul","populacao":206190},"geometry":{"type":"Point","coordinates":[-52.4067,-28.2628]}},{"type":"Feature","properties":{"nome":"Sapucaia do Sul","uf":"RS","regiao":"Sul","populacao":138962},"geometry":{"type":"Point","coordinates":[-51.1456,-29.8294]}},{"type":"Feature","properties":{"nome":"Uruguaiana","uf":"RS","regiao":"Sul","populacao":118973},"geometry":{"type":"Point","coordinates":[-57.0856,-29.7611]}},{"type":"Feature","properties":{"nome":"Santa Cruz do Sul","uf":"RS","regiao":"Sul","populacao":131248},"geometry":{"type":"Point","coordinates":[-52.4256,-29.715]}},{"type":"Feature","properties":{"nome":"Cachoeirinha","uf":"RS","regiao":"Sul","populacao":129279},"geometry":{"type":"Point","coordinates":[-51.0939,-29.9483]}},{"type":"Feature","properties":{"nome":"Bento Gonçalves","uf":"RS","regiao":"Sul","populacao":121803},"geometry":{"type":"Point","coordinates":[-51.5169,-29.1714]}},{"type":"Feature","properties":{"nome":"Bagé","uf":"RS","regiao":"Sul","populacao":116794},"geometry":{"type":"Point","coordinates":[-54.1069,-31.3314]}},{"type":"Feature","properties":{"nome":"Erechim","uf":"RS","regiao":"Sul","populacao":107015},"geometry":{"type":"Point","coordinates":[-52.2733,-27.6342]}},{"type":"Feature","properties":{"nome":"Florianópolis","uf":"SC","regiao":"Sul","populacao":508826,"capital":true},"geometry":{"type":"Point","coordinates":[-48.548,-27.5954]}},{"type":"Feature","properties":{"nome":"Joinville","uf":"SC","regiao":"Sul","populacao":597658},"geometry":{"type":"Point","coordinates":[-48.8487,-26.3044]}},{"type":"Feature","properties":{"nome":"Blumenau","uf":"SC","regiao":"Sul","populacao":366418},"geometry":{"type":"Point","coordinates":[-49.0661,-26.9194]}},{"type":"Feature","properties":{"nome":"São José","uf":"SC","regiao":"Sul","populacao":255300},"geometry":{"type":"Point","coordinates":[-48.6394,-27.5969]}},{"type":"Feature","properties":{"nome":"Chapecó","uf":"SC","regiao":"Sul","populacao":257250},"geometry":{"type":"Point","coordinates":[-52.6181,-27.0964]}},{"type":"Feature","properties":{"nome":"Itajaí","uf":"SC","regiao":"Sul","populacao":224559},"geometry":{"type":"Point","coordinates":[-48.6619,-26.9078]}},{"type":"Feature","properties":{"nome":"Criciúma","uf":"SC","regiao":"Sul","populacao":217311},"geometry":{"type":"Point","coordinates":[-49.37,-28.6781]}},{"type":"Feature","properties":{"nome":"Jaraguá do Sul","uf":"SC","regiao":"Sul","populacao":184540},"geometry":{"type":"Point","coordinates":[-49.0664,-26.4858]}},{"type":"Feature","properties":{"nome":"Lages","uf":"SC","regiao":"Sul","populacao":156727},"geometry":{"type":"Point","coordinates":[-50.3258,-27.8158]}},{"type":"Feature","properties":{"nome":"Palhoça","uf":"SC","regiao":"Sul","populacao":179010},"geometry":{"type":"Point","coordinates":[-48.6722,-27.6386]}},{"type":"Feature","properties":{"nome":"Balneário Camboriú","uf":"SC","regiao":"Sul","populacao":145796},"geometry":{"type":"Point","coordinates":[-48.6356,-26.9931]}},{"type":"Feature","properties":{"nome":"Brusque","uf":"SC","regiao":"Sul","populacao":138343},"geometry":{"type":"Point","coordinates":[-48.9106,-27.0986]}},{"type":"Feature","properties":{"nome":"Tubarão","uf":"SC","regiao":"Sul","populacao":104083},"geometry":{"type":"Point","coordinates":[-49.0067,-28.4664]}},{"type":"Feature","properties":{"nome":"Camboriú","uf":"SC","regiao":"Sul","populacao":103076},"geometry":{"type":"Point","coordinates":[-48.6561,-27.0247]}},{"type":"Feature","properties":{"nome":"São Bento do Sul","uf":"SC","regiao":"Sul","populacao":87095},"geometry":{"type":"Point","coordinates":[-49.3781,-26.2517]}},{"type":"Feature","properties":{"nome":"Florianópolis","uf":"SC","regiao":"Sul","populacao":508826,"capital":true},"geometry":{"type":"Point","coordinates":[-48.548,-27.5954]}}]}